start=new Date('2021-12-23T00:00:00.000Z').valueOf();
sats=[{"MEAN_MOTION":"15.06381298","PERIOD":"95.593","NORAD_CAT_ID":"48436","RA_OF_ASC_NODE":"246.4911","FILE":"3247523","CLASSIFICATION_TYPE":"U","COUNTRY_CODE":"US","MEAN_ANOMALY":"295.7320","PERIAPSIS":"545.585","ARG_OF_PERICENTER":"64.3920","EPHEMERIS_TYPE":"0","RCS_SIZE":"LARGE","OBJECT_ID":"2021-040J","ELEMENT_SET_NO":"999","MEAN_MOTION_DDOT":"0.0000000000000","TLE_LINE1":"1 48436U 21040J   21356.57216108 -.00001780  00000-0 -10065-3 0  9992","GP_ID":"192219540","BSTAR":"-0.00010065000000","REF_FRAME":"TEME","CENTER_NAME":"EARTH","LAUNCH_DATE":"2021-05-09","TIME_SYSTEM":"UTC","INCLINATION":"53.0542","MEAN_ELEMENT_THEORY":"SGP4","SITE":"AFETR","EPOCH":"2021-12-22T13:43:54.717312","DECAY_DATE":null,"REV_AT_EPOCH":"3479","ECCENTRICITY":"0.00024350","OBJECT_TYPE":"PAYLOAD","APOAPSIS":"548.957","TLE_LINE2":"2 48436  53.0542 246.4911 0002435  64.3920 295.7320 15.06381298 34795","MEAN_MOTION_DOT":"-0.00001780","OBJECT_NAME":"STARLINK-2639","SEMIMAJOR_AXIS":"6925.406"},{"RCS_SIZE":"LARGE","EPHEMERIS_TYPE":"0","ARG_OF_PERICENTER":"60.3323","PERIAPSIS":"545.882","OBJECT_ID":"2021-040K","ELEMENT_SET_NO":"999","BSTAR":"-0.00011959000000","GP_ID":"192218288","TLE_LINE1":"1 48437U 21040K   21356.55648134 -.00002062  00000-0 -11959-3 0  9996","MEAN_MOTION_DDOT":"0.0000000000000","REF_FRAME":"TEME","NORAD_CAT_ID":"48437","PERIOD":"95.593","MEAN_MOTION":"15.06380871","FILE":"3247523","RA_OF_ASC_NODE":"256.6552","COUNTRY_CODE":"US","CLASSIFICATION_TYPE":"U","MEAN_ANOMALY":"299.7865","ECCENTRICITY":"0.00020080","OBJECT_TYPE":"PAYLOAD","REV_AT_EPOCH":"3465","MEAN_MOTION_DOT":"-0.00002062","TLE_LINE2":"2 48437  53.0342 256.6552 0002008  60.3323 299.7865 15.06380871 34656","APOAPSIS":"548.663","OBJECT_NAME":"STARLINK-2642","SEMIMAJOR_AXIS":"6925.407","TIME_SYSTEM":"UTC","LAUNCH_DATE":"2021-05-09","CENTER_NAME":"EARTH","INCLINATION":"53.0342","MEAN_ELEMENT_THEORY":"SGP4","DECAY_DATE":null,"EPOCH":"2021-12-22T13:21:19.987776","SITE":"AFETR"},{"REF_FRAME":"TEME","TLE_LINE1":"1 48438U 21040L   21356.10403404 -.00001308  00000-0 -68924-4 0  9994","MEAN_MOTION_DDOT":"0.0000000000000","BSTAR":"-0.00006892400000","GP_ID":"192218037","ELEMENT_SET_NO":"999","OBJECT_ID":"2021-040L","ARG_OF_PERICENTER":"65.9170","EPHEMERIS_TYPE":"0","PERIAPSIS":"545.701","RCS_SIZE":"LARGE","MEAN_ANOMALY":"294.2048","CLASSIFICATION_TYPE":"U","COUNTRY_CODE":"US","RA_OF_ASC_NODE":"248.6042","FILE":"3247523","MEAN_MOTION":"15.06396759","NORAD_CAT_ID":"48438","PERIOD":"95.592","SEMIMAJOR_AXIS":"6925.358","OBJECT_NAME":"STARLINK-2640","TLE_LINE2":"2 48438  53.0553 248.6042 0002198  65.9170 294.2048 15.06396759 34720","APOAPSIS":"548.746","MEAN_MOTION_DOT":"-0.00001308","REV_AT_EPOCH":"3472","ECCENTRICITY":"0.00021980","OBJECT_TYPE":"PAYLOAD","SITE":"AFETR","DECAY_DATE":null,"EPOCH":"2021-12-22T02:29:48.541056","MEAN_ELEMENT_THEORY":"SGP4","INCLINATION":"53.0553","CENTER_NAME":"EARTH","LAUNCH_DATE":"2021-05-09","TIME_SYSTEM":"UTC"},{"FILE":"3247523","RA_OF_ASC_NODE":"248.6237","NORAD_CAT_ID":"48439","PERIOD":"95.593","MEAN_MOTION":"15.06388470","MEAN_ANOMALY":"293.3769","COUNTRY_CODE":"US","CLASSIFICATION_TYPE":"U","OBJECT_ID":"2021-040M","ELEMENT_SET_NO":"999","RCS_SIZE":"LARGE","EPHEMERIS_TYPE":"0","ARG_OF_PERICENTER":"66.7434","PERIAPSIS":"545.841","REF_FRAME":"TEME","BSTAR":"-0.00011073000000","GP_ID":"192219290","TLE_LINE1":"1 48439U 21040M   21356.10034447 -.00001930  00000-0 -11073-3 0  9995","MEAN_MOTION_DDOT":"0.0000000000000","INCLINATION":"53.0537","TIME_SYSTEM":"UTC","LAUNCH_DATE":"2021-05-09","CENTER_NAME":"EARTH","DECAY_DATE":null,"EPOCH":"2021-12-22T02:24:29.762208","SITE":"AFETR","MEAN_ELEMENT_THEORY":"SGP4","MEAN_MOTION_DOT":"-0.00001930","TLE_LINE2":"2 48439  53.0537 248.6237 0002033  66.7434 293.3769 15.06388470 34720","APOAPSIS":"548.657","ECCENTRICITY":"0.00020330","OBJECT_TYPE":"PAYLOAD","REV_AT_EPOCH":"3472","SEMIMAJOR_AXIS":"6925.384","OBJECT_NAME":"STARLINK-2583"},{"TLE_LINE2":"2 48440  53.0550 247.1400 0001884  67.2178 292.9010 15.06386389 34773","APOAPSIS":"548.560","MEAN_MOTION_DOT":"-0.00002222","REV_AT_EPOCH":"3477","ECCENTRICITY":"0.00018840","OBJECT_TYPE":"PAYLOAD","SEMIMAJOR_AXIS":"6925.390","OBJECT_NAME":"STARLINK-2682","INCLINATION":"53.0550","CENTER_NAME":"EARTH","LAUNCH_DATE":"2021-05-09","TIME_SYSTEM":"UTC","SITE":"AFETR","DECAY_DATE":null,"EPOCH":"2021-12-22T10:16:52.908096","MEAN_ELEMENT_THEORY":"SGP4","ELEMENT_SET_NO":"999","OBJECT_ID":"2021-040N","EPHEMERIS_TYPE":"0","ARG_OF_PERICENTER":"67.2178","PERIAPSIS":"545.951","RCS_SIZE":"MEDIUM","REF_FRAME":"TEME","TLE_LINE1":"1 48440U 21040N   21356.42839014 -.00002222  00000-0 -13036-3 0  9991","MEAN_MOTION_DDOT":"0.0000000000000","BSTAR":"-0.00013036000000","GP_ID":"192219040","RA_OF_ASC_NODE":"247.1400","FILE":"3247523","MEAN_MOTION":"15.06386389","PERIOD":"95.593","NORAD_CAT_ID":"48440","MEAN_ANOMALY":"292.9010","CLASSIFICATION_TYPE":"U","COUNTRY_CODE":"US"},{"OBJECT_NAME":"STARLINK-2702","SEMIMAJOR_AXIS":"6925.404","REV_AT_EPOCH":"3477","OBJECT_TYPE":"PAYLOAD","ECCENTRICITY":"0.00020970","TLE_LINE2":"2 48441  53.0559 247.1532 0002097  71.4511 288.6705 15.06381991 34771","APOAPSIS":"548.721","MEAN_MOTION_DOT":"-0.00001154","MEAN_ELEMENT_THEORY":"SGP4","SITE":"AFETR","DECAY_DATE":null,"EPOCH":"2021-12-22T10:11:36.144960","CENTER_NAME":"EARTH","TIME_SYSTEM":"UTC","LAUNCH_DATE":"2021-05-09","INCLINATION":"53.0559","TLE_LINE1":"1 48441U 21040P   21356.42472390 -.00001154  00000-0 -58587-4 0  9996","MEAN_MOTION_DDOT":"0.0000000000000","BSTAR":"-0.00005858700000","GP_ID":"192217788","REF_FRAME":"TEME","ARG_OF_PERICENTER":"71.4511","EPHEMERIS_TYPE":"0","PERIAPSIS":"545.816","RCS_SIZE":"LARGE","OBJECT_ID":"2021-040P","ELEMENT_SET_NO":"999","CLASSIFICATION_TYPE":"U","COUNTRY_CODE":"US","MEAN_ANOMALY":"288.6705","MEAN_MOTION":"15.06381991","PERIOD":"95.593","NORAD_CAT_ID":"48441","RA_OF_ASC_NODE":"247.1532","FILE":"3247523"},{"SEMIMAJOR_AXIS":"6925.398","OBJECT_NAME":"STARLINK-2644","APOAPSIS":"548.977","TLE_LINE2":"2 48442  53.0547 247.1623 0002475  69.5758 290.5497 15.06383903 34776","MEAN_MOTION_DOT":"-0.00003049","REV_AT_EPOCH":"3477","ECCENTRICITY":"0.00024750","OBJECT_TYPE":"PAYLOAD","SITE":"AFETR","EPOCH":"2021-12-22T10:06:17.527680","DECAY_DATE":null,"MEAN_ELEMENT_THEORY":"SGP4","INCLINATION":"53.0547","CENTER_NAME":"EARTH","LAUNCH_DATE":"2021-05-09","TIME_SYSTEM":"UTC","REF_FRAME":"TEME","MEAN_MOTION_DDOT":"0.0000000000000","TLE_LINE1":"1 48442U 21040Q   21356.42103620 -.00003049  00000-0 -18590-3 0  9998","GP_ID":"192218538","BSTAR":"-0.00018590000000","ELEMENT_SET_NO":"999","OBJECT_ID":"2021-040Q","PERIAPSIS":"545.549","ARG_OF_PERICENTER":"69.5758","EPHEMERIS_TYPE":"0","RCS_SIZE":"LARGE","MEAN_ANOMALY":"290.5497","CLASSIFICATION_TYPE":"U","COUNTRY_CODE":"US","RA_OF_ASC_NODE":"247.1623","FILE":"3247523","MEAN_MOTION":"15.06383903","NORAD_CAT_ID":"48442","PERIOD":"95.593"},{"PERIAPSIS":"545.564","EPHEMERIS_TYPE":"0","ARG_OF_PERICENTER":"64.7181","RCS_SIZE":"LARGE","OBJECT_ID":"2021-040R","ELEMENT_SET_NO":"999","MEAN_MOTION_DDOT":"0.0000000000000","TLE_LINE1":"1 48443U 21040R   21356.41735551  .00004181  00000-0  29978-3 0  9990","GP_ID":"192218790","BSTAR":"0.00029978000000","REF_FRAME":"TEME","MEAN_MOTION":"15.06357966","NORAD_CAT_ID":"48443","PERIOD":"95.595","RA_OF_ASC_NODE":"247.1805","FILE":"3247523","CLASSIFICATION_TYPE":"U","COUNTRY_CODE":"US","MEAN_ANOMALY":"295.4073","REV_AT_EPOCH":"3477","OBJECT_TYPE":"PAYLOAD","ECCENTRICITY":"0.00025680","APOAPSIS":"549.121","TLE_LINE2":"2 48443  53.0552 247.1805 0002568  64.7181 295.4073 15.06357966 34779","MEAN_MOTION_DOT":"0.00004181","OBJECT_NAME":"STARLINK-2663","SEMIMAJOR_AXIS":"6925.477","CENTER_NAME":"EARTH","TIME_SYSTEM":"UTC","LAUNCH_DATE":"2021-05-09","INCLINATION":"53.0552","MEAN_ELEMENT_THEORY":"SGP4","SITE":"AFETR","EPOCH":"2021-12-22T10:00:59.516064","DECAY_DATE":null},{"MEAN_ANOMALY":"292.5503","COUNTRY_CODE":"US","CLASSIFICATION_TYPE":"U","FILE":"3247523","RA_OF_ASC_NODE":"247.2013","PERIOD":"95.593","NORAD_CAT_ID":"48444","MEAN_MOTION":"15.06383139","REF_FRAME":"TEME","BSTAR":"-0.00019044000000","GP_ID":"192219541","TLE_LINE1":"1 48444U 21040S   21356.41366345 -.00003116  00000-0 -19044-3 0  9994","MEAN_MOTION_DDOT":"0.0000000000000","OBJECT_ID":"2021-040S","ELEMENT_SET_NO":"999","RCS_SIZE":"LARGE","ARG_OF_PERICENTER":"67.5743","EPHEMERIS_TYPE":"0","PERIAPSIS":"545.585","DECAY_DATE":null,"EPOCH":"2021-12-22T09:55:40.522080","SITE":"AFETR","MEAN_ELEMENT_THEORY":"SGP4","INCLINATION":"53.0554","TIME_SYSTEM":"UTC","LAUNCH_DATE":"2021-05-09","CENTER_NAME":"EARTH","SEMIMAJOR_AXIS":"6925.400","OBJECT_NAME":"STARLINK-2645","MEAN_MOTION_DOT":"-0.00003116","TLE_LINE2":"2 48444  53.0554 247.2013 0002426  67.5743 292.5503 15.06383139 34779","APOAPSIS":"548.945","OBJECT_TYPE":"PAYLOAD","ECCENTRICITY":"0.00024260","REV_AT_EPOCH":"3477"},{"OBJECT_ID":"2021-040T","ELEMENT_SET_NO":"999","RCS_SIZE":"LARGE","PERIAPSIS":"545.621","ARG_OF_PERICENTER":"66.1438","EPHEMERIS_TYPE":"0","REF_FRAME":"TEME","GP_ID":"192226230","BSTAR":"-0.00008883600000","MEAN_MOTION_DDOT":"0.0000000000000","TLE_LINE1":"1 48445U 21040T   21356.74171482 -.00001604  00000-0 -88836-4 0  9993","FILE":"3247751","RA_OF_ASC_NODE":"245.7340","PERIOD":"95.593","NORAD_CAT_ID":"48445","MEAN_MOTION":"15.06380613","MEAN_ANOMALY":"293.9801","COUNTRY_CODE":"US","CLASSIFICATION_TYPE":"U","MEAN_MOTION_DOT":"-0.00001604","APOAPSIS":"548.925","TLE_LINE2":"2 48445  53.0561 245.7340 0002386  66.1438 293.9801 15.06380613 36104","ECCENTRICITY":"0.00023860","OBJECT_TYPE":"PAYLOAD","REV_AT_EPOCH":"3610","SEMIMAJOR_AXIS":"6925.408","OBJECT_NAME":"STARLINK-2634","INCLINATION":"53.0561","TIME_SYSTEM":"UTC","LAUNCH_DATE":"2021-05-09","CENTER_NAME":"EARTH","EPOCH":"2021-12-22T17:48:04.160448","DECAY_DATE":null,"SITE":"AFETR","MEAN_ELEMENT_THEORY":"SGP4"}];
